1 25994U 99068A 24286.14276819 .00003124 00000+0 65897-3 0 9998
2 25994 98.0352 346.1387 0002529 31.2852 357.2388 14.60095526 320233